IRIDIUM 57              
1 25273U 98019B   24269.46605379  .00001033  00000+0  35302-3 0  9991
2 25273  86.3908 256.0915 0002288  90.5019 269.6439 14.35416621386804
IRIDIUM 63              
1 25286U 98021B   24269.51999061  .00001288  00000+0  43676-3 0  9993
2 25286  86.4057 193.0238 0002528  81.2791 278.8692 14.36022355385858
IRIDIUM 69              
1 25319U 98026A   24269.57051233  .00001818  00000+0  56794-3 0  9995
2 25319  86.4030 207.0687 0003299 128.1553 231.9944 14.40290738384961
IRIDIUM 71              
1 25320U 98026B   24269.54909658  .00001417  00000+0  43885-3 0  9999
2 25320  86.4038 201.8240 0001009 145.3649 214.7616 14.40589013385482
IRIDIUM 73              
1 25344U 98032C   24269.45405067  .00001534  00000+0  38382-3 0  9993
2 25344  86.4476 159.1834 0002483  97.3962 262.7526 14.50911833392165
IRIDIUM 82              
1 25467U 98051A   24269.44457473  .00025331  00000+0  11433-2 0  9995
2 25467  86.3729 238.0206 0115652 208.6491 150.8366 15.14960722383642
